{
  "type": "FeatureCollection",
  "features": [
    {
      "type": "Feature",
      "properties": {
        "norad_id": 41434,
        "name": "BEIDOU-2 IGSO-6 (C13)",
        "group": "beidou",
        "lat": 47.94315860873375,
        "lon": 79.83594544982755,
        "alt_km": 36033.61798629802,
        "timestamp": "2025-12-05T19:30:25.830624+00:00",
        "meta_object_name": "BEIDOU-2 IGSO-6 (C13)",
        "meta_object_id": "2016-021A",
        "meta_epoch": "2025-12-01T15:57:35.287200",
        "meta_mean_motion": 1.00256562,
        "meta_eccentricity": 0.00591323,
        "meta_inclination": 59.9483,
        "meta_ra_of_asc_node": 40.0119,
        "meta_arg_of_pericenter": 231.2834,
        "meta_mean_anomaly": 130.8807,
        "meta_ephemeris_type": 0,
        "meta_classification_type": "U",
        "meta_norad_cat_id": 41434,
        "meta_element_set_no": 999,
        "meta_rev_at_epoch": 3550,
        "meta_bstar": 0,
        "meta_mean_motion_dot": -1.55e-06,
        "meta_mean_motion_ddot": 0,
        "tle_line1": "1 41434U 16021A   25335.66499175 -.00000155  00000+0  00000+0 0  9991",
        "tle_line2": "2 41434  59.9483  40.0119 0059132 231.2834 130.8807  1.00256562 35501"
      },
      "geometry": {
        "type": "Point",
        "coordinates": [
          79.83594544982755,
          47.94315860873375
        ]
      }
    },
    {
      "type": "Feature",
      "properties": {
        "norad_id": 41586,
        "name": "BEIDOU-2 G7 (C03)",
        "group": "beidou",
        "lat": 1.3527975375916594,
        "lon": 117.96801869876089,
        "alt_km": 35773.89318398212,
        "timestamp": "2025-12-05T19:30:25.830636+00:00",
        "meta_object_name": "BEIDOU-2 G7 (C03)",
        "meta_object_id": "2016-037A",
        "meta_epoch": "2025-12-05T14:13:25.464576",
        "meta_mean_motion": 1.00270507,
        "meta_eccentricity": 0.0004355,
        "meta_inclination": 1.7387,
        "meta_ra_of_asc_node": 67.7225,
        "meta_arg_of_pericenter": 2.4156,
        "meta_mean_anomaly": 328.3509,
        "meta_ephemeris_type": 0,
        "meta_classification_type": "U",
        "meta_norad_cat_id": 41586,
        "meta_element_set_no": 999,
        "meta_rev_at_epoch": 494,
        "meta_bstar": 0,
        "meta_mean_motion_dot": -3.44e-06,
        "meta_mean_motion_ddot": 0,
        "tle_line1": "1 41586U 16037A   25339.59265584 -.00000344  00000+0  00000+0 0  9997",
        "tle_line2": "2 41586   1.7387  67.7225 0004355   2.4156 328.3509  1.00270507  4945"
      },
      "geometry": {
        "type": "Point",
        "coordinates": [
          117.96801869876089,
          1.3527975375916594
        ]
      }
    },
    {
      "type": "Feature",
      "properties": {
        "norad_id": 43001,
        "name": "BEIDOU-3 M1 (C19)",
        "group": "beidou",
        "lat": -9.14546064320394,
        "lon": 63.363766641423794,
        "alt_km": 21512.215745144804,
        "timestamp": "2025-12-05T19:30:25.830647+00:00",
        "meta_object_name": "BEIDOU-3 M1 (C19)",
        "meta_object_id": "2017-069A",
        "meta_epoch": "2025-12-03T03:27:53.485056",
        "meta_mean_motion": 1.86230745,
        "meta_eccentricity": 0.00088373,
        "meta_inclination": 56.5186,
        "meta_ra_of_asc_node": 69.5514,
        "meta_arg_of_pericenter": 303.7187,
        "meta_mean_anomaly": 56.1997,
        "meta_ephemeris_type": 0,
        "meta_classification_type": "U",
        "meta_norad_cat_id": 43001,
        "meta_element_set_no": 999,
        "meta_rev_at_epoch": 5495,
        "meta_bstar": 0,
        "meta_mean_motion_dot": -4.9e-07,
        "meta_mean_motion_ddot": 0,
        "tle_line1": "1 43001U 17069A   25337.14436904 -.00000049  00000+0  00000+0 0  9994",
        "tle_line2": "2 43001  56.5186  69.5514 0008837 303.7187  56.1997  1.86230745 54952"
      },
      "geometry": {
        "type": "Point",
        "coordinates": [
          63.363766641423794,
          -9.14546064320394
        ]
      }
    },
    {
      "type": "Feature",
      "properties": {
        "norad_id": 43002,
        "name": "BEIDOU-3 M2 (C20)",
        "group": "beidou",
        "lat": 24.96841190759139,
        "lon": 87.42439943728182,
        "alt_km": 21516.000026977006,
        "timestamp": "2025-12-05T19:30:25.830658+00:00",
        "meta_object_name": "BEIDOU-3 M2 (C20)",
        "meta_object_id": "2017-069B",
        "meta_epoch": "2025-12-04T16:38:46.347936",
        "meta_mean_motion": 1.862306,
        "meta_eccentricity": 0.00062566,
        "meta_inclination": 56.5195,
        "meta_ra_of_asc_node": 69.536,
        "meta_arg_of_pericenter": 331.7329,
        "meta_mean_anomaly": 28.2399,
        "meta_ephemeris_type": 0,
        "meta_classification_type": "U",
        "meta_norad_cat_id": 43002,
        "meta_element_set_no": 999,
        "meta_rev_at_epoch": 5497,
        "meta_bstar": 0,
        "meta_mean_motion_dot": -4.9e-07,
        "meta_mean_motion_ddot": 0,
        "tle_line1": "1 43002U 17069B   25338.69359199 -.00000049  00000+0  00000+0 0  9996",
        "tle_line2": "2 43002  56.5195  69.5360 0006256 331.7329  28.2399  1.86230600 54972"
      },
      "geometry": {
        "type": "Point",
        "coordinates": [
          87.42439943728182,
          24.96841190759139
        ]
      }
    },
    {
      "type": "Feature",
      "properties": {
        "norad_id": 43107,
        "name": "BEIDOU-3 M7 (C27)",
        "group": "beidou",
        "lat": -18.298799763468107,
        "lon": 142.67705190028926,
        "alt_km": 21535.42000716323,
        "timestamp": "2025-12-05T19:30:25.830669+00:00",
        "meta_object_name": "BEIDOU-3 M7 (C27)",
        "meta_object_id": "2018-003A",
        "meta_epoch": "2025-12-04T23:22:06.674304",
        "meta_mean_motion": 1.86232224,
        "meta_eccentricity": 0.00026381,
        "meta_inclination": 54.5036,
        "meta_ra_of_asc_node": 309.0851,
        "meta_arg_of_pericenter": 70.1822,
        "meta_mean_anomaly": 289.8293,
        "meta_ephemeris_type": 0,
        "meta_classification_type": "U",
        "meta_norad_cat_id": 43107,
        "meta_element_set_no": 999,
        "meta_rev_at_epoch": 5373,
        "meta_bstar": 0,
        "meta_mean_motion_dot": -7e-07,
        "meta_mean_motion_ddot": 0,
        "tle_line1": "1 43107U 18003A   25338.97368836 -.00000070  00000+0  00000+0 0  9994",
        "tle_line2": "2 43107  54.5036 309.0851 0002638  70.1822 289.8293  1.86232224 53734"
      },
      "geometry": {
        "type": "Point",
        "coordinates": [
          142.67705190028926,
          -18.298799763468107
        ]
      }
    },
    {
      "type": "Feature",
      "properties": {
        "norad_id": 43108,
        "name": "BEIDOU-3 M8 (C28)",
        "group": "beidou",
        "lat": -44.54884449219015,
        "lon": 173.6309025493292,
        "alt_km": 21522.215295690574,
        "timestamp": "2025-12-05T19:30:25.830695+00:00",
        "meta_object_name": "BEIDOU-3 M8 (C28)",
        "meta_object_id": "2018-003B",
        "meta_epoch": "2025-12-03T20:16:15.436704",
        "meta_mean_motion": 1.86230755,
        "meta_eccentricity": 0.0004789,
        "meta_inclination": 54.4975,
        "meta_ra_of_asc_node": 309.1071,
        "meta_arg_of_pericenter": 274.2636,
        "meta_mean_anomaly": 85.6663,
        "meta_ephemeris_type": 0,
        "meta_classification_type": "U",
        "meta_norad_cat_id": 43108,
        "meta_element_set_no": 999,
        "meta_rev_at_epoch": 5372,
        "meta_bstar": 0,
        "meta_mean_motion_dot": -6.8e-07,
        "meta_mean_motion_ddot": 0,
        "tle_line1": "1 43108U 18003B   25337.84462311 -.00000068  00000+0  00000+0 0  9990",
        "tle_line2": "2 43108  54.4975 309.1071 0004789 274.2636  85.6663  1.86230755 53729"
      },
      "geometry": {
        "type": "Point",
        "coordinates": [
          173.6309025493292,
          -44.54884449219015
        ]
      }
    },
    {
      "type": "Feature",
      "properties": {
        "norad_id": 43207,
        "name": "BEIDOU-3 M4 (C22)",
        "group": "beidou",
        "lat": -44.216721242608536,
        "lon": 29.456758669486714,
        "alt_km": 21529.691829210347,
        "timestamp": "2025-12-05T19:30:25.830722+00:00",
        "meta_object_name": "BEIDOU-3 M4 (C22)",
        "meta_object_id": "2018-018A",
        "meta_epoch": "2025-12-02T03:19:43.852800",
        "meta_mean_motion": 1.86230706,
        "meta_eccentricity": 0.00040749,
        "meta_inclination": 56.4768,
        "meta_ra_of_asc_node": 69.6557,
        "meta_arg_of_pericenter": 15.1369,
        "meta_mean_anomaly": 344.8773,
        "meta_ephemeris_type": 0,
        "meta_classification_type": "U",
        "meta_norad_cat_id": 43207,
        "meta_element_set_no": 999,
        "meta_rev_at_epoch": 5307,
        "meta_bstar": 0,
        "meta_mean_motion_dot": -4.5e-07,
        "meta_mean_motion_ddot": 0,
        "tle_line1": "1 43207U 18018A   25336.13870200 -.00000045  00000+0  00000+0 0  9992",
        "tle_line2": "2 43207  56.4768  69.6557 0004074  15.1369 344.8773  1.86230706 53076"
      },
      "geometry": {
        "type": "Point",
        "coordinates": [
          29.456758669486714,
          -44.216721242608536
        ]
      }
    }
  ]
}